start=new Date('2021-12-29T00:00:00.000Z').valueOf();
sats=[{"DECAY_DATE":null,"MEAN_MOTION_DDOT":"0.0000000000000","COUNTRY_CODE":"US","FILE":"3254265","SITE":"AFETR","BSTAR":"0.00010582000000","MEAN_ELEMENT_THEORY":"SGP4","MEAN_MOTION":"15.06393689","OBJECT_ID":"2021-009BH","ECCENTRICITY":"0.00013030","EPHEMERIS_TYPE":"0","CENTER_NAME":"EARTH","APOAPSIS":"548.135","GP_ID":"192675875","ELEMENT_SET_NO":"999","CLASSIFICATION_TYPE":"U","ARG_OF_PERICENTER":"75.6820","OBJECT_TYPE":"PAYLOAD","REF_FRAME":"TEME","PERIAPSIS":"546.331","LAUNCH_DATE":"2021-02-04","MEAN_MOTION_DOT":"0.00001295","PERIOD":"95.593","REV_AT_EPOCH":"4960","MEAN_ANOMALY":"284.4314","EPOCH":"2021-12-28T17:09:16.363008","INCLINATION":"53.0548","RCS_SIZE":"LARGE","TLE_LINE1":"1 47603U 21009BH  21362.71477272  .00001295  00000-0  10582-3 0  9999","RA_OF_ASC_NODE":"78.9118","OBJECT_NAME":"STARLINK-2008","TIME_SYSTEM":"UTC","TLE_LINE2":"2 47603  53.0548  78.9118 0001303  75.6820 284.4314 15.06393689 49601","NORAD_CAT_ID":"47603","SEMIMAJOR_AXIS":"6925.368"},{"REV_AT_EPOCH":"5061","MEAN_ANOMALY":"274.2733","REF_FRAME":"TEME","OBJECT_TYPE":"PAYLOAD","PERIOD":"95.592","MEAN_MOTION_DOT":"0.00000080","PERIAPSIS":"546.252","LAUNCH_DATE":"2021-02-04","TLE_LINE1":"1 47604U 21009BJ  21362.57747725  .00000080  00000-0  24277-4 0  9995","RA_OF_ASC_NODE":"49.5380","RCS_SIZE":"LARGE","TLE_LINE2":"2 47604  53.0556  49.5380 0001412  85.8417 274.2733 15.06394753 50610","NORAD_CAT_ID":"47604","SEMIMAJOR_AXIS":"6925.365","OBJECT_NAME":"STARLINK-2021","TIME_SYSTEM":"UTC","EPOCH":"2021-12-28T13:51:34.034400","INCLINATION":"53.0556","COUNTRY_CODE":"US","SITE":"AFETR","FILE":"3253930","MEAN_MOTION_DDOT":"0.0000000000000","DECAY_DATE":null,"APOAPSIS":"548.208","CENTER_NAME":"EARTH","EPHEMERIS_TYPE":"0","ARG_OF_PERICENTER":"85.8417","CLASSIFICATION_TYPE":"U","ELEMENT_SET_NO":"999","GP_ID":"192646211","MEAN_ELEMENT_THEORY":"SGP4","BSTAR":"0.00002427700000","ECCENTRICITY":"0.00014120","OBJECT_ID":"2021-009BJ","MEAN_MOTION":"15.06394753"},{"MEAN_MOTION":"15.59228807","OBJECT_ID":"2021-009BK","ECCENTRICITY":"0.00027960","BSTAR":"0.00042717000000","MEAN_ELEMENT_THEORY":"SGP4","GP_ID":"192639110","ELEMENT_SET_NO":"999","CLASSIFICATION_TYPE":"U","ARG_OF_PERICENTER":"55.2857","EPHEMERIS_TYPE":"0","APOAPSIS":"391.782","CENTER_NAME":"EARTH","DECAY_DATE":null,"MEAN_MOTION_DDOT":"0.0000000000000","FILE":"3253660","SITE":"AFETR","COUNTRY_CODE":"US","INCLINATION":"53.0517","EPOCH":"2021-12-28T09:58:37.342272","TIME_SYSTEM":"UTC","OBJECT_NAME":"STARLINK-2023","TLE_LINE2":"2 47605  53.0517  42.1988 0002796  55.2857 304.8418 15.59228807 50092","NORAD_CAT_ID":"47605","SEMIMAJOR_AXIS":"6768.025","RCS_SIZE":"LARGE","RA_OF_ASC_NODE":"42.1988","TLE_LINE1":"1 47605U 21009BK  21362.41570998  .00033782  00000-0  42717-3 0  9998","LAUNCH_DATE":"2021-02-04","PERIAPSIS":"387.997","MEAN_MOTION_DOT":"0.00033782","PERIOD":"92.353","OBJECT_TYPE":"PAYLOAD","REF_FRAME":"TEME","MEAN_ANOMALY":"304.8418","REV_AT_EPOCH":"5009"},{"APOAPSIS":"548.087","CENTER_NAME":"EARTH","EPHEMERIS_TYPE":"0","GP_ID":"192639360","CLASSIFICATION_TYPE":"U","ARG_OF_PERICENTER":"82.1809","ELEMENT_SET_NO":"999","MEAN_ELEMENT_THEORY":"SGP4","BSTAR":"0.00011271000000","ECCENTRICITY":"0.00012610","OBJECT_ID":"2021-009BL","MEAN_MOTION":"15.06400002","COUNTRY_CODE":"US","SITE":"AFETR","FILE":"3253660","DECAY_DATE":null,"MEAN_MOTION_DDOT":"0.0000000000000","RA_OF_ASC_NODE":"50.1059","TLE_LINE1":"1 47606U 21009BL  21362.44846339  .00001398  00000-0  11271-3 0  9996","RCS_SIZE":"LARGE","OBJECT_NAME":"STARLINK-2024","TIME_SYSTEM":"UTC","NORAD_CAT_ID":"47606","TLE_LINE2":"2 47606  53.0571  50.1059 0001261  82.1809 277.9323 15.06400002 49996","SEMIMAJOR_AXIS":"6925.349","EPOCH":"2021-12-28T10:45:47.236896","INCLINATION":"53.0571","REV_AT_EPOCH":"4999","MEAN_ANOMALY":"277.9323","REF_FRAME":"TEME","OBJECT_TYPE":"PAYLOAD","LAUNCH_DATE":"2021-02-04","PERIAPSIS":"546.340","PERIOD":"95.592","MEAN_MOTION_DOT":"0.00001398"},{"COUNTRY_CODE":"US","FILE":"3254265","SITE":"AFETR","DECAY_DATE":null,"MEAN_MOTION_DDOT":"0.0000000000000","APOAPSIS":"548.280","CENTER_NAME":"EARTH","EPHEMERIS_TYPE":"0","GP_ID":"192675375","CLASSIFICATION_TYPE":"U","ARG_OF_PERICENTER":"77.2260","ELEMENT_SET_NO":"999","BSTAR":"0.00005208700000","MEAN_ELEMENT_THEORY":"SGP4","ECCENTRICITY":"0.00015060","MEAN_MOTION":"15.06392265","OBJECT_ID":"2021-009BM","REV_AT_EPOCH":"5001","MEAN_ANOMALY":"282.8897","REF_FRAME":"TEME","OBJECT_TYPE":"PAYLOAD","PERIAPSIS":"546.194","LAUNCH_DATE":"2021-02-04","PERIOD":"95.593","MEAN_MOTION_DOT":"0.00000494","RA_OF_ASC_NODE":"49.3216","TLE_LINE1":"1 47607U 21009BM  21362.62538551  .00000494  00000-0  52087-4 0  9998","RCS_SIZE":"LARGE","OBJECT_NAME":"STARLINK-2025","TIME_SYSTEM":"UTC","TLE_LINE2":"2 47607  53.0531  49.3216 0001506  77.2260 282.8897 15.06392265 50013","SEMIMAJOR_AXIS":"6925.372","NORAD_CAT_ID":"47607","EPOCH":"2021-12-28T15:00:33.308064","INCLINATION":"53.0531"},{"REV_AT_EPOCH":"4907","MEAN_ANOMALY":"253.0570","OBJECT_TYPE":"PAYLOAD","REF_FRAME":"TEME","MEAN_MOTION_DOT":"-0.00000164","PERIOD":"95.592","PERIAPSIS":"546.168","LAUNCH_DATE":"2021-02-16","RCS_SIZE":"LARGE","RA_OF_ASC_NODE":"108.9526","TLE_LINE1":"1 47620U 21012A   21362.70830960 -.00000164  00000-0  78708-5 0  9999","NORAD_CAT_ID":"47620","TLE_LINE2":"2 47620  53.0541 108.9526 0001492 107.0582 253.0570 15.06404115 49078","SEMIMAJOR_AXIS":"6925.336","TIME_SYSTEM":"UTC","OBJECT_NAME":"STARLINK-1528","EPOCH":"2021-12-28T16:59:57.949440","INCLINATION":"53.0541","COUNTRY_CODE":"US","FILE":"3254265","SITE":"AFETR","MEAN_MOTION_DDOT":"0.0000000000000","DECAY_DATE":null,"EPHEMERIS_TYPE":"0","APOAPSIS":"548.234","CENTER_NAME":"EARTH","ELEMENT_SET_NO":"999","ARG_OF_PERICENTER":"107.0582","CLASSIFICATION_TYPE":"U","GP_ID":"192675626","MEAN_ELEMENT_THEORY":"SGP4","BSTAR":"0.00000787080000","OBJECT_ID":"2021-012A","MEAN_MOTION":"15.06404115","ECCENTRICITY":"0.00014920"},{"INCLINATION":"53.0557","EPOCH":"2021-12-28T18:24:54.069408","NORAD_CAT_ID":"47621","TLE_LINE2":"2 47621  53.0557 108.6864 0001373  88.6751 271.4395 15.06399197 49092","SEMIMAJOR_AXIS":"6925.351","TIME_SYSTEM":"UTC","OBJECT_NAME":"STARLINK-1609","TLE_LINE1":"1 47621U 21012B   21362.76729247  .00000249  00000-0  35639-4 0  9999","RA_OF_ASC_NODE":"108.6864","RCS_SIZE":"LARGE","PERIOD":"95.592","MEAN_MOTION_DOT":"0.00000249","PERIAPSIS":"546.265","LAUNCH_DATE":"2021-02-16","REF_FRAME":"TEME","OBJECT_TYPE":"PAYLOAD","MEAN_ANOMALY":"271.4395","REV_AT_EPOCH":"4909","ECCENTRICITY":"0.00013730","MEAN_MOTION":"15.06399197","OBJECT_ID":"2021-012B","BSTAR":"0.00003563900000","MEAN_ELEMENT_THEORY":"SGP4","CLASSIFICATION_TYPE":"U","ARG_OF_PERICENTER":"88.6751","ELEMENT_SET_NO":"999","GP_ID":"192675376","APOAPSIS":"548.167","CENTER_NAME":"EARTH","EPHEMERIS_TYPE":"0","MEAN_MOTION_DDOT":"0.0000000000000","DECAY_DATE":null,"SITE":"AFETR","FILE":"3254265","COUNTRY_CODE":"US"},{"FILE":"3253835","SITE":"AFETR","COUNTRY_CODE":"US","DECAY_DATE":null,"MEAN_MOTION_DDOT":"0.0000000000000","GP_ID":"192643921","ARG_OF_PERICENTER":"99.2009","CLASSIFICATION_TYPE":"U","ELEMENT_SET_NO":"999","CENTER_NAME":"EARTH","APOAPSIS":"548.199","EPHEMERIS_TYPE":"0","ECCENTRICITY":"0.00014590","OBJECT_ID":"2021-012C","MEAN_MOTION":"15.06408303","BSTAR":"0.00017054000000","MEAN_ELEMENT_THEORY":"SGP4","MEAN_ANOMALY":"260.9145","REV_AT_EPOCH":"4854","PERIAPSIS":"546.178","LAUNCH_DATE":"2021-02-16","PERIOD":"95.592","MEAN_MOTION_DOT":"0.00002260","REF_FRAME":"TEME","OBJECT_TYPE":"PAYLOAD","TIME_SYSTEM":"UTC","OBJECT_NAME":"STARLINK-1645","SEMIMAJOR_AXIS":"6925.323","TLE_LINE2":"2 47622  53.0553 109.5860 0001459  99.2009 260.9145 15.06408303 48549","NORAD_CAT_ID":"47622","RA_OF_ASC_NODE":"109.5860","TLE_LINE1":"1 47622U 21012C   21362.56456088  .00002260  00000-0  17054-3 0  9993","RCS_SIZE":"LARGE","INCLINATION":"53.0553","EPOCH":"2021-12-28T13:32:58.060032"},{"SITE":"AFETR","FILE":"3254265","COUNTRY_CODE":"US","MEAN_MOTION_DDOT":"0.0000000000000","DECAY_DATE":null,"ELEMENT_SET_NO":"999","CLASSIFICATION_TYPE":"U","ARG_OF_PERICENTER":"80.9172","GP_ID":"192674374","EPHEMERIS_TYPE":"0","APOAPSIS":"548.204","CENTER_NAME":"EARTH","OBJECT_ID":"2021-012D","MEAN_MOTION":"15.06399154","ECCENTRICITY":"0.00014260","MEAN_ELEMENT_THEORY":"SGP4","BSTAR":"0.00008398900000","MEAN_ANOMALY":"279.1978","REV_AT_EPOCH":"4998","MEAN_MOTION_DOT":"0.00000970","PERIOD":"95.592","LAUNCH_DATE":"2021-02-16","PERIAPSIS":"546.229","OBJECT_TYPE":"PAYLOAD","REF_FRAME":"TEME","SEMIMAJOR_AXIS":"6925.351","TLE_LINE2":"2 47623  53.0559  44.2400 0001426  80.9172 279.1978 15.06399154 49981","NORAD_CAT_ID":"47623","OBJECT_NAME":"STARLINK-1655","TIME_SYSTEM":"UTC","RCS_SIZE":"LARGE","TLE_LINE1":"1 47623U 21012D   21362.64243888  .00000970  00000-0  83989-4 0  9992","RA_OF_ASC_NODE":"44.2400","INCLINATION":"53.0559","EPOCH":"2021-12-28T15:25:06.719232"},{"REV_AT_EPOCH":"4937","MEAN_ANOMALY":"269.9098","REF_FRAME":"TEME","OBJECT_TYPE":"PAYLOAD","LAUNCH_DATE":"2021-02-16","PERIAPSIS":"546.349","PERIOD":"95.593","MEAN_MOTION_DOT":"-0.00000911","RA_OF_ASC_NODE":"88.9724","TLE_LINE1":"1 47624U 21012E   21362.70279389 -.00000911  00000-0 -42311-4 0  9996","RCS_SIZE":"LARGE","OBJECT_NAME":"STARLINK-1669","TIME_SYSTEM":"UTC","SEMIMAJOR_AXIS":"6925.366","TLE_LINE2":"2 47624  53.0553  88.9724 0001274  90.2037 269.9098 15.06394219 49375","NORAD_CAT_ID":"47624","EPOCH":"2021-12-28T16:52:01.392096","INCLINATION":"53.0553","COUNTRY_CODE":"US","SITE":"AFETR","FILE":"3254265","DECAY_DATE":null,"MEAN_MOTION_DDOT":"0.0000000000000","CENTER_NAME":"EARTH","APOAPSIS":"548.114","EPHEMERIS_TYPE":"0","GP_ID":"192675126","ARG_OF_PERICENTER":"90.2037","CLASSIFICATION_TYPE":"U","ELEMENT_SET_NO":"999","BSTAR":"-0.00004231100000","MEAN_ELEMENT_THEORY":"SGP4","ECCENTRICITY":"0.00012740","OBJECT_ID":"2021-012E","MEAN_MOTION":"15.06394219"}];
